MALLIGYONG-1            
1 58400U 23179A   24087.85848506  .00007055  00000+0  31499-3 0  9999
2 58400  97.4147 335.9240 0009597 176.8573 183.2725 15.21629503 19354
